[{"OBJECT_NAME":"STARLINK-5415","OBJECT_ID":"2022-175AQ","EPOCH":"2026-03-09T07:06:19.532160","MEAN_MOTION":15.08836405,"ECCENTRICITY":0.00013911,"INCLINATION":53.2182,"RA_OF_ASC_NODE":30.6354,"ARG_OF_PERICENTER":84.3442,"MEAN_ANOMALY":275.7709,"EPHEMERIS_TYPE":0,"CLASSIFICATION_TYPE":"U","NORAD_CAT_ID":54796,"ELEMENT_SET_NO":999,"REV_AT_EPOCH":18007,"BSTAR":-6.3803961e-5,"MEAN_MOTION_DOT":-1.303e-5,"MEAN_MOTION_DDOT":0},{"OBJECT_NAME":"DISKSAT C","OBJECT_ID":"2025-305A","EPOCH":"2026-03-09T19:16:32.318976","MEAN_MOTION":15.07852977,"ECCENTRICITY":0.00045341,"INCLINATION":45.0017,"RA_OF_ASC_NODE":250.1278,"ARG_OF_PERICENTER":310.7706,"MEAN_ANOMALY":49.2776,"EPHEMERIS_TYPE":0,"CLASSIFICATION_TYPE":"U","NORAD_CAT_ID":67219,"ELEMENT_SET_NO":999,"REV_AT_EPOCH":1231,"BSTAR":0.00075564202,"MEAN_MOTION_DOT":0.00011541,"MEAN_MOTION_DDOT":0}]
